[{"OBJECT_NAME":"STARLINK-6126","OBJECT_ID":"2023-046AJ","EPOCH":"2026-03-09T22:00:01.999584","MEAN_MOTION":15.125351,"ECCENTRICITY":0.00023023,"INCLINATION":42.9998,"RA_OF_ASC_NODE":144.9048,"ARG_OF_PERICENTER":271.6853,"MEAN_ANOMALY":109.3366,"EPHEMERIS_TYPE":0,"CLASSIFICATION_TYPE":"U","NORAD_CAT_ID":56124,"ELEMENT_SET_NO":999,"REV_AT_EPOCH":577,"BSTAR":0.0675572,"MEAN_MOTION_DOT":0.01299298,"MEAN_MOTION_DDOT":0},{"OBJECT_NAME":"SCS-01 A","OBJECT_ID":"2025-100A","EPOCH":"2026-03-09T23:34:52.624992","MEAN_MOTION":15.20882651,"ECCENTRICITY":0.0023898,"INCLINATION":97.374,"RA_OF_ASC_NODE":143.9086,"ARG_OF_PERICENTER":335.0117,"MEAN_ANOMALY":24.996,"EPHEMERIS_TYPE":0,"CLASSIFICATION_TYPE":"U","NORAD_CAT_ID":63982,"ELEMENT_SET_NO":999,"REV_AT_EPOCH":4556,"BSTAR":0.000529729,"MEAN_MOTION_DOT":0.00011735,"MEAN_MOTION_DDOT":0}]
